NORAD_CAT_ID,OBJECT_NAME,OBJECT_TYPE,EPOCH,MEAN_MOTION,ECCENTRICITY,INCLINATION,RA_OF_ASC_NODE,ARG_OF_PERICENTER,MEAN_ANOMALY,BSTAR,MEAN_MOTION_DOT,MEAN_MOTION_DDOT,TLE_LINE0,TLE_LINE1,TLE_LINE2,SEMIMAJOR_AXIS,PERIOD,APOGEE,PERIGEE,DECAYED
49159.0,STARLINK-3056,PAYLOAD,2023-04-28 13:26:41,14.98328401,0.0002504,70.0015,52.1227,279.4604,80.6272,0.00031839,3.708e-05,0.0,0 STARLINK-3056,1 49159U 21082AF  23118.56020027  .00003708  00000-0  31839-3 0  9993,2 49159  70.0015  52.1227 0002504 279.4604  80.6272 14.98328401 90379,6950.198,96.107,573.803,570.323,0.0
49159.0,STARLINK-3056,PAYLOAD,2023-04-29 05:28:01,14.98339336,0.0002932,70.0009,50.4384,267.5403,92.542,0.00012423,1.39e-05,0.0,0 STARLINK-3056,1 49159U 21082AF  23119.22779491  .00001390  00000-0  12423-3 0  9996,2 49159  70.0009  50.4384 0002932 267.5403  92.5420 14.98339336 90474,6950.164,96.106,574.067,569.991,0.0
49159.0,STARLINK-3056,PAYLOAD,2023-04-29 18:17:06,14.98338884,0.0002797,70.0012,49.0919,268.569,91.5149,1.0235e-05,2.9e-07,0.0,0 STARLINK-3056,1 49159U 21082AF  23119.76187508  .00000029  00000-0  10235-4 0  9995,2 49159  70.0012  49.0919 0002797 268.5690  91.5149 14.98338884 90557,6950.165,96.106,573.974,570.086,0.0
49159.0,STARLINK-3056,PAYLOAD,2023-04-30 05:30:02,14.98342764,0.0002822,70.001,47.9136,268.2748,91.8088,-5.6785e-05,-7.71e-06,0.0,0 STARLINK-3056,1 49159U 21082AF  23120.22919111 -.00000771  00000-0 -56785-4 0  9997,2 49159  70.0010  47.9136 0002822 268.2748  91.8088 14.98342764 90628,6950.153,96.106,573.98,570.057,0.0
49159.0,STARLINK-3056,PAYLOAD,2023-04-30 21:31:23,14.98327826,0.0002757,70.0009,46.2304,269.3851,90.6993,-2.1023e-05,-3.44e-06,0.0,0 STARLINK-3056,1 49159U 21082AF  23120.89679718 -.00000344  00000-0 -21023-4 0  9999,2 49159  70.0009  46.2304 0002757 269.3851  90.6993 14.98327826 90724,6950.2,96.107,573.981,570.148,0.0
49159.0,STARLINK-3056,PAYLOAD,2023-05-01 05:32:03,14.98332243,0.0002761,70.001,45.3888,270.2022,89.882,-9.389e-05,-1.213e-05,0.0,0 STARLINK-3056,1 49159U 21082AF  23121.23059573 -.00001213  00000-0 -93890-4 0  9996,2 49159  70.0010  45.3888 0002761 270.2022  89.8820 14.98332243 90772,6950.186,96.107,573.97,570.132,0.0
49159.0,STARLINK-3056,PAYLOAD,2023-05-01 21:33:23,14.98334637,0.0002785,70.0012,43.7059,270.4928,89.5912,1.3752e-05,7.1e-07,0.0,0 STARLINK-3056,1 49159U 21082AF  23121.89818964  .00000071  00000-0  13752-4 0  9993,2 49159  70.0012  43.7059 0002785 270.4928  89.5912 14.98334637 90878,6950.179,96.107,573.979,570.108,0.0
49159.0,STARLINK-3056,PAYLOAD,2023-05-02 03:57:55,14.98336967,0.0002655,70.0015,43.0331,265.3528,94.7328,5.3552e-05,5.46e-06,0.0,0 STARLINK-3056,1 49159U 21082AF  23122.16522611  .00000546  00000-0  53552-4 0  9994,2 49159  70.0015  43.0331 0002655 265.3528  94.7328 14.98336967 90914,6950.171,96.107,573.882,570.191,0.0
49159.0,STARLINK-3056,PAYLOAD,2023-05-02 21:35:24,14.98329233,0.0002717,70.0011,41.1814,266.1466,93.9382,6.3756e-05,6.68e-06,0.0,0 STARLINK-3056,1 49159U 21082AF  23122.89958912  .00000668  00000-0  63756-4 0  9993,2 49159  70.0011  41.1814 0002717 266.1466  93.9382 14.98329233 91026,6950.195,96.107,573.949,570.172,0.0
49159.0,STARLINK-3056,PAYLOAD,2023-05-03 03:59:56,14.98330729,0.0002793,70.001,40.5076,272.3044,87.7795,6.6054e-05,6.95e-06,0.0,0 STARLINK-3056,1 49159U 21082AF  23123.16662852  .00000695  00000-0  66054-4 0  9993,2 49159  70.0010  40.5076 0002793 272.3044  87.7795 14.98330729 91068,6950.191,96.107,573.997,570.114,0.0
49159.0,STARLINK-3056,PAYLOAD,2023-05-03 21:37:25,14.98329963,0.0002668,70.0011,38.6551,269.9666,90.1187,-5.6683e-05,-7.69e-06,0.0,0 STARLINK-3056,1 49159U 21082AF  23123.90099189 -.00000769  00000-0 -56683-4 0  9993,2 49159  70.0011  38.6551 0002668 269.9666  90.1187 14.98329963 91171,6950.193,96.107,573.912,570.204,0.0
49159.0,STARLINK-3056,PAYLOAD,2023-05-04 04:01:57,14.98331695,0.0002715,70.0012,37.9825,271.7058,88.379,-3.6968e-05,-5.34e-06,0.0,0 STARLINK-3056,1 49159U 21082AF  23124.16803016 -.00000534  00000-0 -36968-4 0  9998,2 49159  70.0012  37.9825 0002715 271.7058  88.3790 14.98331695 91216,6950.188,96.107,573.94,570.166,0.0
49159.0,STARLINK-3056,PAYLOAD,2023-05-04 21:39:26,14.9833231,0.0002775,70.0013,36.1311,272.1726,87.9115,2.0898e-05,1.56e-06,0.0,0 STARLINK-3056,1 49159U 21082AF  23124.90238690  .00000156  00000-0  20898-4 0  9993,2 49159  70.0013  36.1311 0002775 272.1726  87.9115 14.98332310 91324,6950.186,96.107,573.979,570.122,0.0
49159.0,STARLINK-3056,PAYLOAD,2023-05-05 04:03:58,14.98335427,0.000278,70.0013,35.4575,271.6305,88.4536,5.4462e-05,5.57e-06,0.0,0 STARLINK-3056,1 49159U 21082AF  23125.16942326  .00000557  00000-0  54462-4 0  9999,2 49159  70.0013  35.4575 0002780 271.6305  88.4536 14.98335427 91360,6950.176,96.107,573.973,570.109,0.0
49159.0,STARLINK-3056,PAYLOAD,2023-05-05 20:05:19,14.9832471,0.000265,70.0016,33.7747,266.8909,93.1947,2.567e-05,2.13e-06,0.0,0 STARLINK-3056,1 49159U 21082AF  23125.83703056  .00000213  00000-0  25670-4 0  9996,2 49159  70.0016  33.7747 0002650 266.8909  93.1947 14.98324710 91460,6950.209,96.107,573.916,570.232,0.0
49159.0,STARLINK-3056,PAYLOAD,2023-05-05 21:41:27,14.98327113,0.000277,70.0014,33.6065,270.21,89.8741,-1.8455e-05,-3.13e-06,0.0,0 STARLINK-3056,1 49159U 21082AF  23125.90379067 -.00000313  00000-0 -18455-4 0  9991,2 49159  70.0014  33.6065 0002770 270.2100  89.8741 14.98327113 91470,6950.202,96.107,573.992,570.142,0.0
49159.0,STARLINK-3056,PAYLOAD,2023-05-06 04:05:59,14.9832789,0.0002717,70.0014,32.933,268.1569,91.9278,3.664e-05,3.44e-06,0.0,0 STARLINK-3056,1 49159U 21082AF  23126.17082917  .00000344  00000-0  36640-4 0  9994,2 49159  70.0014  32.9330 0002717 268.1569  91.9278 14.98327890 91519,6950.199,96.107,573.953,570.176,0.0
49159.0,STARLINK-3056,PAYLOAD,2023-05-07 02:31:52,14.98350831,0.0002975,70.0012,30.5766,270.6993,89.3825,-0.00036148,-4.406e-05,0.0,0 STARLINK-3056,1 49159U 21082AF  23127.10546319 -.00004406  00000-0 -36148-3 0  9996,2 49159  70.0012  30.5766 0002975 270.6993  89.3825 14.98350831 91654,6950.128,96.106,574.061,569.926,0.0
49159.0,STARLINK-3056,PAYLOAD,2023-05-07 04:08:00,14.98332897,0.0002824,70.0012,30.4084,269.2029,90.8806,-2.3623e-05,-3.75e-06,0.0,0 STARLINK-3056,1 49159U 21082AF  23127.17222654 -.00000375  00000-0 -23623-4 0  9992,2 49159  70.0012  30.4084 0002824 269.2029  90.8806 14.98332897 91662,6950.184,96.107,574.012,570.086,0.0
49159.0,STARLINK-3056,PAYLOAD,2023-05-07 18:33:13,14.98324108,0.000285,70.0012,28.894,263.8686,96.2148,-2.4613e-05,-3.87e-06,0.0,0 STARLINK-3056,1 49159U 21082AF  23127.77307263 -.00000387  00000-0 -24613-4 0  9991,2 49159  70.0012  28.8940 0002850 263.8686  96.2148 14.98324108 91757,6950.211,96.107,574.057,570.095,0.0
49159.0,STARLINK-3056,PAYLOAD,2023-05-07 21:45:29,14.98323719,0.0002867,70.0011,28.5573,263.7467,96.3365,-2.9366e-05,-4.43e-06,0.0,0 STARLINK-3056,1 49159U 21082AF  23127.90659340 -.00000443  00000-0 -29366-4 0  9995,2 49159  70.0011  28.5573 0002867 263.7467  96.3365 14.98323719 91770,6950.212,96.107,574.07,570.085,0.0
49159.0,STARLINK-3056,PAYLOAD,2023-05-08 20:11:21,14.98331779,0.0002959,70.0012,26.2016,269.2428,90.8392,6.0668e-05,6.31e-06,0.0,0 STARLINK-3056,1 49159U 21082AF  23128.84122655  .00000631  00000-0  60668-4 0  9990,2 49159  70.0012  26.2016 0002959 269.2428  90.8392 14.98331779 91918,6950.187,96.107,574.109,569.996,0.0
49159.0,STARLINK-3056,PAYLOAD,2023-05-08 21:47:30,14.98332082,0.0002954,70.0012,26.0333,269.2571,90.825,6.4209e-05,6.73e-06,0.0,0 STARLINK-3056,1 49159U 21082AF  23128.90798621  .00000673  00000-0  64209-4 0  9990,2 49159  70.0012  26.0333 0002954 269.2571  90.8250 14.98332082 91924,6950.186,96.107,574.105,569.998,0.0
49159.0,STARLINK-3056,PAYLOAD,2023-05-09 02:35:53,14.98335892,0.0002899,70.0013,25.5286,269.2958,90.7869,0.00010701,1.184e-05,0.0,0 STARLINK-3056,1 49159U 21082AF  23129.10826219  .00001184  00000-0  10701-3 0  9993,2 49159  70.0013  25.5286 0002899 269.2958  90.7869 14.98335892 91953,6950.175,96.107,574.055,570.025,0.0
49159.0,STARLINK-3056,PAYLOAD,2023-05-10 02:37:55,14.98330468,0.0002942,70.0012,23.0041,270.0048,90.0774,5.0445e-05,5.09e-06,0.0,0 STARLINK-3056,1 49159U 21082AF  23130.10966679  .00000509  00000-0  50445-4 0  9990,2 49159  70.0012  23.0041 0002942 270.0048  90.0774 14.98330468 92103,6950.191,96.107,574.101,570.012,0.0
49159.0,STARLINK-3056,PAYLOAD,2023-05-10 18:39:15,14.98334182,0.0002888,70.0013,21.32,270.5321,89.5507,-8.2168e-06,-1.91e-06,0.0,0 STARLINK-3056,1 49159U 21082AF  23130.77726512 -.00000191  00000-0 -82168-5 0  9990,2 49159  70.0013  21.3200 0002888 270.5321  89.5507 14.98334182 92205,6950.18,96.107,574.052,570.038,0.0
49159.0,STARLINK-3056,PAYLOAD,2023-05-11 01:03:47,14.98335686,0.0002885,70.0011,20.6456,270.1051,89.9777,9.3355e-05,1.021e-05,0.0,0 STARLINK-3056,1 49159U 21082AF  23131.04430030  .00001021  00000-0  93355-4 0  9998,2 49159  70.0011  20.6456 0002885 270.1051  89.9777 14.98335686 92248,6950.175,96.107,574.045,570.035,0.0
49159.0,STARLINK-3056,PAYLOAD,2023-05-11 02:39:55,14.98329586,0.0002699,70.0012,20.4772,264.7304,95.3547,0.00022519,2.595e-05,0.0,0 STARLINK-3056,1 49159U 21082AF  23131.11106073  .00002595  00000-0  22519-3 0  9993,2 49159  70.0012  20.4772 0002699 264.7304  95.3547 14.98329586 92250,6950.194,96.107,573.935,570.183,0.0
49159.0,STARLINK-3056,PAYLOAD,2023-05-11 23:29:41,14.9832671,0.0002733,70.0015,18.2899,266.2555,93.8291,-4.1855e-05,-5.92e-06,0.0,0 STARLINK-3056,1 49159U 21082AF  23131.97894877 -.00000592  00000-0 -41855-4 0  9995,2 49159  70.0015  18.2899 0002733 266.2555  93.8291 14.98326710 92381,6950.203,96.107,573.968,570.169,0.0
49159.0,STARLINK-3056,PAYLOAD,2023-05-12 02:41:57,14.98325831,0.0002748,70.0017,17.9534,266.863,93.2215,-3.9313e-05,-5.62e-06,0.0,0 STARLINK-3056,1 49159U 21082AF  23132.11246972 -.00000562  00000-0 -39313-4 0  9992,2 49159  70.0017  17.9534 0002748 266.8630  93.2215 14.98325831 92407,6950.206,96.107,573.981,570.161,0.0
